[{"OBJECT_NAME":"STARLINK-1372","OBJECT_ID":"2020-025N","EPOCH":"2026-03-09T09:08:39.449760","MEAN_MOTION":15.30207893,"ECCENTRICITY":0.00011953,"INCLINATION":53.1606,"RA_OF_ASC_NODE":102.4567,"ARG_OF_PERICENTER":90.9639,"MEAN_ANOMALY":269.1499,"EPHEMERIS_TYPE":0,"CLASSIFICATION_TYPE":"U","NORAD_CAT_ID":45543,"ELEMENT_SET_NO":999,"REV_AT_EPOCH":32422,"BSTAR":9.6690214e-5,"MEAN_MOTION_DOT":2.506e-5,"MEAN_MOTION_DDOT":0},{"OBJECT_NAME":"HAWK-11B","OBJECT_ID":"2024-247C","EPOCH":"2026-03-09T10:44:06.809856","MEAN_MOTION":15.2884707,"ECCENTRICITY":0.00046902,"INCLINATION":45.0161,"RA_OF_ASC_NODE":115.761,"ARG_OF_PERICENTER":333.0326,"MEAN_ANOMALY":27.0314,"EPHEMERIS_TYPE":0,"CLASSIFICATION_TYPE":"U","NORAD_CAT_ID":62379,"ELEMENT_SET_NO":999,"REV_AT_EPOCH":6773,"BSTAR":0.00032841927,"MEAN_MOTION_DOT":9.093e-5,"MEAN_MOTION_DDOT":0}]
